[
    {
        "Altitude(m)": 703251.1302680525,
        "Argument of Periapsis(deg)": 0.0,
        "Eccentricity": 0.0,
        "Inclination(deg)": 45.0,
        "Latitude(deg)": 22.545767620125847,
        "Longitude(deg)": -40.580920314961155,
        "Mean Anomaly(deg)": 32.7273,
        "RAAN(deg)": 35.0,
        "Satellite Name": "Constellation 1 156",
        "Satellite Number": 156,
        "Semi-Major Axis(m)": 7083131.272910544,
        "Time(s)": 0
    },
    {
        "Altitude(m)": 703255.2580366678,
        "Argument of Periapsis(deg)": 5.994800624540561e-05,
        "Eccentricity": 0.0,
        "Inclination(deg)": 45.0,
        "Latitude(deg)": 22.585078855824392,
        "Longitude(deg)": -40.53480077106454,
        "Mean Anomaly(deg)": 32.7880011402499,
        "RAAN(deg)": 34.999943410834426,
        "Satellite Name": "Constellation 1 156",
        "Satellite Number": 156,
        "Semi-Major Axis(m)": 7083131.272910544,
        "Time(s)": 1
    },
    {
        "Altitude(m)": 703259.3975760404,
        "Argument of Periapsis(deg)": 0.00011989601249081122,
        "Eccentricity": 0.0,
        "Inclination(deg)": 45.0,
        "Latitude(deg)": 22.62437420363059,
        "Longitude(deg)": -40.48865272231255,
        "Mean Anomaly(deg)": 32.848702280499786,
        "RAAN(deg)": 34.99988682166886,
        "Satellite Name": "Constellation 1 156",
        "Satellite Number": 156,
        "Semi-Major Axis(m)": 7083131.272910544,
        "Time(s)": 2
    },
    {
        "Altitude(m)": 703263.5488514963,
        "Argument of Periapsis(deg)": 0.00017984401873621686,
        "Eccentricity": 0.0,
        "Inclination(deg)": 45.0,
        "Latitude(deg)": 22.663653624140103,
        "Longitude(deg)": -40.44247610891963,
        "Mean Anomaly(deg)": 32.90940342074969,
        "RAAN(deg)": 34.999830232503285,
        "Satellite Name": "Constellation 1 156",
        "Satellite Number": 156,
        "Semi-Major Axis(m)": 7083131.272910544,
        "Time(s)": 3
    },
    {
        "Altitude(m)": 703267.7118283049,
        "Argument of Periapsis(deg)": 0.00023979202498162244,
        "Eccentricity": 0.0,
        "Inclination(deg)": 45.0,
        "Latitude(deg)": 22.702917077892398,
        "Longitude(deg)": -40.39627087108025,
        "Mean Anomaly(deg)": 32.97010456099958,
        "RAAN(deg)": 34.99977364333772,
        "Satellite Name": "Constellation 1 156",
        "Satellite Number": 156,
        "Semi-Major Axis(m)": 7083131.272910544,
        "Time(s)": 4
    },
    {
        "Altitude(m)": 703271.8864717017,
        "Argument of Periapsis(deg)": 0.00029974003122702807,
        "Eccentricity": 0.0,
        "Inclination(deg)": 45.0,
        "Latitude(deg)": 22.742164525370512,
        "Longitude(deg)": -40.35003694896927,
        "Mean Anomaly(deg)": 33.030805701249506,
        "RAAN(deg)": 34.99971705417215,
        "Satellite Name": "Constellation 1 156",
        "Satellite Number": 156,
        "Semi-Major Axis(m)": 7083131.272910544,
        "Time(s)": 5
    },
    {
        "Altitude(m)": 703276.0727468857,
        "Argument of Periapsis(deg)": 0.00035968803747243373,
        "Eccentricity": 0.0,
        "Inclination(deg)": 45.0,
        "Latitude(deg)": 22.78139592700094,
        "Longitude(deg)": -40.30377428274198,
        "Mean Anomaly(deg)": 33.0915068414994,
        "RAAN(deg)": 34.99966046500658,
        "Satellite Name": "Constellation 1 156",
        "Satellite Number": 156,
        "Semi-Major Axis(m)": 7083131.272910544,
        "Time(s)": 6
    },
    {
        "Altitude(m)": 703280.2706190046,
        "Argument of Periapsis(deg)": 0.00041963604371783933,
        "Eccentricity": 0.0,
        "Inclination(deg)": 45.0,
        "Latitude(deg)": 22.820611243153444,
        "Longitude(deg)": -40.2574829806313,
        "Mean Anomaly(deg)": 33.1522079817493,
        "RAAN(deg)": 34.99960387584101,
        "Satellite Name": "Constellation 1 156",
        "Satellite Number": 156,
        "Semi-Major Axis(m)": 7083131.272910544,
        "Time(s)": 7
    },
    {
        "Altitude(m)": 703284.4800531699,
        "Argument of Periapsis(deg)": 0.0004795840499632449,
        "Eccentricity": 0.0,
        "Inclination(deg)": 45.0,
        "Latitude(deg)": 22.859810434141618,
        "Longitude(deg)": -40.21116264656021,
        "Mean Anomaly(deg)": 33.21290912199919,
        "RAAN(deg)": 34.999547286675444,
        "Satellite Name": "Constellation 1 156",
        "Satellite Number": 156,
        "Semi-Major Axis(m)": 7083131.272910544,
        "Time(s)": 8
    },
    {
        "Altitude(m)": 703288.7010144556,
        "Argument of Periapsis(deg)": 0.0005395320562086505,
        "Eccentricity": 0.0,
        "Inclination(deg)": 45.0,
        "Latitude(deg)": 22.89899346022165,
        "Longitude(deg)": -40.164813388723495,
        "Mean Anomaly(deg)": 33.27361026224909,
        "RAAN(deg)": 34.99949069750987,
        "Satellite Name": "Constellation 1 156",
        "Satellite Number": 156,
        "Semi-Major Axis(m)": 7083131.272910544,
        "Time(s)": 9
    },
    {
        "Altitude(m)": 703292.9334678875,
        "Argument of Periapsis(deg)": 0.0005994800624540561,
        "Eccentricity": 0.0,
        "Inclination(deg)": 45.0,
        "Latitude(deg)": 22.938160281592964,
        "Longitude(deg)": -40.118435147200195,
        "Mean Anomaly(deg)": 33.334311402499,
        "RAAN(deg)": 34.9994341083443,
        "Satellite Name": "Constellation 1 156",
        "Satellite Number": 156,
        "Semi-Major Axis(m)": 7083131.272910544,
        "Time(s)": 10
    },
    {
        "Altitude(m)": 703297.1773784608,
        "Argument of Periapsis(deg)": 0.0006594280686994618,
        "Eccentricity": 0.0,
        "Inclination(deg)": 45.0,
        "Latitude(deg)": 22.977310858397836,
        "Longitude(deg)": -40.07202786205085,
        "Mean Anomaly(deg)": 33.39501254274888,
        "RAAN(deg)": 34.99937751917873,
        "Satellite Name": "Constellation 1 156",
        "Satellite Number": 156,
        "Semi-Major Axis(m)": 7083131.272910544,
        "Time(s)": 11
    },
    {
        "Altitude(m)": 703301.4327111224,
        "Argument of Periapsis(deg)": 0.0007193760749448675,
        "Eccentricity": 0.0,
        "Inclination(deg)": 45.0,
        "Latitude(deg)": 23.01644515072153,
        "Longitude(deg)": -40.02559147331749,
        "Mean Anomaly(deg)": 33.45571368299879,
        "RAAN(deg)": 34.99932093001316,
        "Satellite Name": "Constellation 1 156",
        "Satellite Number": 156,
        "Semi-Major Axis(m)": 7083131.272910544,
        "Time(s)": 12
    },
    {
        "Altitude(m)": 703305.6994307741,
        "Argument of Periapsis(deg)": 0.000779324081190273,
        "Eccentricity": 0.0,
        "Inclination(deg)": 45.0,
        "Latitude(deg)": 23.055563118591905,
        "Longitude(deg)": -39.97912592102403,
        "Mean Anomaly(deg)": 33.516414823248674,
        "RAAN(deg)": 34.99926434084759,
        "Satellite Name": "Constellation 1 156",
        "Satellite Number": 156,
        "Semi-Major Axis(m)": 7083131.272910544,
        "Time(s)": 13
    },
    {
        "Altitude(m)": 703309.9775022961,
        "Argument of Periapsis(deg)": 0.0008392720874356787,
        "Eccentricity": 0.0,
        "Inclination(deg)": 45.0,
        "Latitude(deg)": 23.094664721979466,
        "Longitude(deg)": -39.93263114517626,
        "Mean Anomaly(deg)": 33.57711596349859,
        "RAAN(deg)": 34.99920775168203,
        "Satellite Name": "Constellation 1 156",
        "Satellite Number": 156,
        "Semi-Major Axis(m)": 7083131.272910544,
        "Time(s)": 14
    },
    {
        "Altitude(m)": 703314.2668905114,
        "Argument of Periapsis(deg)": 0.0008992200936810842,
        "Eccentricity": 0.0,
        "Inclination(deg)": 45.0,
        "Latitude(deg)": 23.133749920797015,
        "Longitude(deg)": -39.88610725385907,
        "Mean Anomaly(deg)": 33.63781710374849,
        "RAAN(deg)": 34.999151162516455,
        "Satellite Name": "Constellation 1 156",
        "Satellite Number": 156,
        "Semi-Major Axis(m)": 7083131.272910544,
        "Time(s)": 15
    },
    {
        "Altitude(m)": 703318.567560214,
        "Argument of Periapsis(deg)": 0.0009591680999264898,
        "Eccentricity": 0.0,
        "Inclination(deg)": 45.0,
        "Latitude(deg)": 23.172818674900302,
        "Longitude(deg)": -39.83955385084906,
        "Mean Anomaly(deg)": 33.698518243998386,
        "RAAN(deg)": 34.99909457335089,
        "Satellite Name": "Constellation 1 156",
        "Satellite Number": 156,
        "Semi-Major Axis(m)": 7083131.272910544,
        "Time(s)": 16
    },
    {
        "Altitude(m)": 703322.8794761491,
        "Argument of Periapsis(deg)": 0.0010191161061718953,
        "Eccentricity": 0.0,
        "Inclination(deg)": 45.0,
        "Latitude(deg)": 23.211870944086783,
        "Longitude(deg)": -39.79297104419596,
        "Mean Anomaly(deg)": 33.75921938424829,
        "RAAN(deg)": 34.999037984185314,
        "Satellite Name": "Constellation 1 156",
        "Satellite Number": 156,
        "Semi-Major Axis(m)": 7083131.272910544,
        "Time(s)": 17
    },
    {
        "Altitude(m)": 703327.2026030276,
        "Argument of Periapsis(deg)": 0.001079064112417301,
        "Eccentricity": 0.0,
        "Inclination(deg)": 45.0,
        "Latitude(deg)": 23.250906688096247,
        "Longitude(deg)": -39.74635877383552,
        "Mean Anomaly(deg)": 33.81992052449818,
        "RAAN(deg)": 34.99898139501975,
        "Satellite Name": "Constellation 1 156",
        "Satellite Number": 156,
        "Semi-Major Axis(m)": 7083131.272910544,
        "Time(s)": 18
    }
]